{"results":[{"query":"42370 Bob Hope Drive, Rancho Mirage CA","response":{"input":{"address_components":{"number":"42370","street":"Bob Hope","suffix":"Dr","city":"Rancho Mirage","state":"CA"},"formatted_address":"42370 Bob Hope Dr, Rancho Mirage, CA"},"results":[{"address_components":{"number":"42370","street":"Bob Hope","suffix":"Dr","city":"Rancho Mirage","state":"CA","zip":"92270"},"formatted_address":"42370 Bob Hope Dr, Rancho Mirage, CA 92270","location":{"lat":33.738987255507,"lng":-116.40833849559},"accuracy":1},{"address_components":{"number":"42370","street":"Bob Hope","suffix":"Dr","city":"Rancho Mirage","state":"CA","zip":"92270"},"formatted_address":"42370 Bob Hope Dr, Rancho Mirage, CA 92270","location":{"lat":33.738980796909,"lng":-116.40833917329},"accuracy":0.8}]}},{"query":"1290 Northbrook Court Mall, Northbrook IL","response":{"input":{"address_components":{"number":"1290","street":"Northbrook Court Mall","city":"Northbrook","state":"IL"},"formatted_address":"1290 Northbrook Court Mall, Northbrook, IL"},"results":[{"address_components":{"city":"Northbrook","state":"IL","zip":"60062"},"formatted_address":"Northbrook, IL 60062","location":{"lat":"42.120176","lng":"-87.838815"},"accuracy":0.33},{"address_components":{"city":"Northbrook","state":"IL","zip":"60065"},"formatted_address":"Northbrook, IL 60065","location":{"lat":"41.811929","lng":"-87.687320"},"accuracy":0.33},{"address_components":{"city":"North Barrington","state":"IL","zip":"60010"},"formatted_address":"North Barrington, IL 60010","location":{"lat":"42.207802","lng":"-88.140635"},"accuracy":0.27}]}},{"query":"4410 S Highway 17 92, Casselberry FL","response":{"input":{"address_components":{"number":"4410","predirectional":"S","street":"Highway 17 92","city":"Casselberry","state":"FL"},"formatted_address":"4410 S Highway 17 92, Casselberry, FL"},"results":[{"address_components":{"city":"Casselberry","state":"FL","zip":"32707"},"formatted_address":"Casselberry, FL 32707","location":{"lat":"28.661468","lng":"-81.313989"},"accuracy":0.33},{"address_components":{"city":"Casselberry","state":"FL","zip":"32718"},"formatted_address":"Casselberry, FL 32718","location":{"lat":"28.744752","lng":"-81.223280"},"accuracy":0.33},{"address_components":{"city":"Casselberry","state":"FL","zip":"32730"},"formatted_address":"Casselberry, FL 32730","location":{"lat":"28.651275","lng":"-81.341840"},"accuracy":0.33},{"address_components":{"city":"Casselberry","state":"FL","zip":"32711"},"formatted_address":"Casselberry, FL 32711","location":{"lat":"28.677775","lng":"-81.327846"},"accuracy":0.23},{"address_components":{"city":"Casselberry","state":"FL","zip":"32717"},"formatted_address":"Casselberry, FL 32717","location":{"lat":"28.677775","lng":"-81.327846"},"accuracy":0.23},{"address_components":{"city":"Casselberry","state":"FL","zip":"32723"},"formatted_address":"Casselberry, FL 32723","location":{"lat":"28.677775","lng":"-81.327846"},"accuracy":0.23},{"address_components":{"city":"Casselberry","state":"FL","zip":"32729"},"formatted_address":"Casselberry, FL 32729","location":{"lat":"28.677775","lng":"-81.327846"},"accuracy":0.23}]}},{"query":"15000 NE 24th Street, Redmond WA","response":{"input":{"address_components":{"number":"15000","predirectional":"NE","street":"24th","suffix":"St","city":"Redmond","state":"WA"},"formatted_address":"15000 NE 24th St, Redmond, WA"},"results":[{"address_components":{"number":"15000","predirectional":"NE","street":"24th","suffix":"St","city":"Redmond","state":"WA","zip":"98052"},"formatted_address":"15000 NE 24th St, Redmond, WA 98052","location":{"lat":47.63150504878,"lng":-122.14160607317},"accuracy":1},{"address_components":{"number":"15000","predirectional":"NE","street":"24th","suffix":"St","city":"Redmond","state":"WA","zip":"98052"},"formatted_address":"15000 NE 24th St, Redmond, WA 98052","location":{"lat":47.631505158537,"lng":-122.1415948628},"accuracy":0.8}]}},{"query":"17015 Walnut Grove Drive, Morgan Hill CA","response":{"input":{"address_components":{"number":"17015","street":"Walnut Grove","suffix":"Dr","city":"Morgan Hill","state":"CA"},"formatted_address":"17015 Walnut Grove Dr, Morgan Hill, CA"},"results":[{"address_components":{"number":"17015","street":"Walnut Grove","suffix":"Dr","city":"Madrone","state":"CA","zip":"95037"},"formatted_address":"17015 Walnut Grove Dr, Madrone, CA 95037","location":{"lat":37.148936142857,"lng":-121.68332857143},"accuracy":1},{"address_components":{"number":"17015","street":"Walnut Grove","suffix":"Dr","city":"Madrone","state":"CA","zip":"95037"},"formatted_address":"17015 Walnut Grove Dr, Madrone, CA 95037","location":{"lat":37.143545333333,"lng":-121.65046},"accuracy":1},{"address_components":{"number":"17015","street":"Walnut Grove","suffix":"Dr","city":"Madrone","state":"CA","zip":"95037"},"formatted_address":"17015 Walnut Grove Dr, Madrone, CA 95037","location":{"lat":37.134143482759,"lng":-121.63489413793},"accuracy":1},{"address_components":{"number":"17015","street":"Walnut Grove","suffix":"Dr","city":"Madrone","state":"CA","zip":"95037"},"formatted_address":"17015 Walnut Grove Dr, Madrone, CA 95037","location":{"lat":37.142877105263,"lng":-121.64600263158},"accuracy":1},{"address_components":{"number":"17015","street":"Walnut Grove","suffix":"Dr","city":"Madrone","state":"CA","zip":"95037"},"formatted_address":"17015 Walnut Grove Dr, Madrone, CA 95037","location":{"lat":37.131369740741,"lng":-121.63864111111},"accuracy":1}]}}]}